$$SOE
2460728.500000000, A.D. 2025-Feb-22 00:00:00.0000, 1.059699288424813E+07, 3.161371715127251E+08, -1.056850372163530E+07,
2460735.500000000, A.D. 2025-Mar-01 00:00:00.0000, -2.088211530183874E+06, 3.153799397803581E+08, -1.021108598711033E+07,
2460742.500000000, A.D. 2025-Mar-08 00:00:00.0000, -1.477011340684473E+07, 3.141356506434146E+08, -9.837892700862870E+06,
2460749.500000000, A.D. 2025-Mar-15 00:00:00.0000, -2.742891714751867E+07, 3.124019785659767E+08, -9.449367861339629E+06,
2460756.500000000, A.D. 2025-Mar-22 00:00:00.0000, -4.004452808917904E+07, 3.101774713960168E+08, -9.045991489014387E+06,
2460763.500000000, A.D. 2025-Mar-29 00:00:00.0000, -5.259659589113954E+07, 3.074615801046299E+08, -8.628279599882379E+06,
2460770.500000000, A.D. 2025-Apr-05 00:00:00.0000, -6.506455943123051E+07, 3.042546872109157E+08, -8.196784105498329E+06,
2460777.500000000, A.D. 2025-Apr-12 00:00:00.0000, -7.742769502950686E+07, 3.005581336605600E+08, -7.752092447411135E+06,
2460784.500000000, A.D. 2025-Apr-19 00:00:00.0000, -8.966516804548834E+07, 2.963742429329382E+08, -7.294827013313279E+06,
2460791.500000000, A.D. 2025-Apr-26 00:00:00.0000, -1.017560873992106E+08, 2.917063418376383E+08, -6.825644370203331E+06,
2460798.500000000, A.D. 2025-May-03 00:00:00.0000, -1.136795626838858E+08, 2.865587776949906E+08, -6.345234318807751E+06,
2460805.500000000, A.D. 2025-May-10 00:00:00.0000, -1.254147635825663E+08, 2.809369315996948E+08, -5.854318768104449E+06,
2460812.500000000, A.D. 2025-May-17 00:00:00.0000, -1.369409812534479E+08, 2.748472274368210E+08, -5.353650435213476E+06,
2460819.500000000, A.D. 2025-May-24 00:00:00.0000, -1.482376911731423E+08, 2.682971363310318E+08, -4.844011391315877E+06,
2460826.500000000, A.D. 2025-May-31 00:00:00.0000, -1.592846166480473E+08, 2.612951766054172E+08, -4.326211468573645E+06,
2460833.500000000, A.D. 2025-Jun-07 00:00:00.0000, -1.700617929926755E+08, 2.538509102573446E+08, -3.801086397098541E+06,
2460840.500000000, A.D. 2025-Jun-14 00:00:00.0000, -1.805496343097280E+08, 2.459749351347339E+08, -3.269495516871125E+06,
2460847.500000000, A.D. 2025-Jun-21 00:00:00.0000, -1.907290011887158E+08, 2.376788694325002E+08, -2.732319451997891E+06,
2460854.500000000, A.D. 2025-Jun-28 00:00:00.0000, -2.005812657118002E+08, 2.289753301961443E+08, -2.190457898268998E+06,
2460861.500000000, A.D. 2025-Jul-05 00:00:00.0000, -2.100883748056125E+08, 2.198779079780722E+08, -1.644827221541792E+06,
2460868.500000000, A.D. 2025-Jul-12 00:00:00.0000, -2.192329126367928E+08, 2.104011368951792E+08, -1.096357839255586E+06,
2460875.500000000, A.D. 2025-Jul-19 00:00:00.0000, -2.279981613622071E+08, 2.005604596125873E+08, -5.459914654396772E+05,
2460882.500000000, A.D. 2025-Jul-26 00:00:00.0000, -2.363681595349508E+08, 1.903721873502002E+08, 5.321739513888955E+03,
2460889.500000000, A.D. 2025-Aug-02 00:00:00.0000, -2.443277576283785E+08, 1.798534551436867E+08, 5.566260910567567E+05,
2460896.500000000, A.D. 2025-Aug-09 00:00:00.0000, -2.518626702047333E+08, 1.690221726096991E+08, 1.106963351072215E+06,
2460903.500000000, A.D. 2025-Aug-16 00:00:00.0000, -2.589595242304026E+08, 1.578969704675740E+08, 1.655375713510960E+06,
2460910.500000000, A.D. 2025-Aug-23 00:00:00.0000, -2.656059028594027E+08, 1.464971431962546E+08, 2.200908757956482E+06,
2460917.500000000, A.D. 2025-Aug-30 00:00:00.0000, -2.717903840115837E+08, 1.348425889439761E+08, 2.742614377463169E+06,
2460924.500000000, A.D. 2025-Sep-06 00:00:00.0000, -2.775025748683651E+08, 1.229537481298755E+08, 3.279553870499894E+06,
2460931.500000000, A.D. 2025-Sep-13 00:00:00.0000, -2.827331437193849E+08, 1.108515387272492E+08, 3.810801125131689E+06,
2460938.500000000, A.D. 2025-Sep-20 00:00:00.0000, -2.874738456986218E+08, 9.855728708595057E+07, 4.335445439867496E+06,
2460945.500000000, A.D. 2025-Sep-27 00:00:00.0000, -2.917175412062160E+08, 8.609265791375168E+07, 4.852594119714718E+06,
2460952.500000000, A.D. 2025-Oct-04 00:00:00.0000, -2.954582089592082E+08, 7.347958446483043E+07, 5.361375057708964E+06,
2460959.500000000, A.D. 2025-Oct-11 00:00:00.0000, -2.986909540425369E+08, 6.074019851426838E+07, 5.860939240743525E+06,
2460966.500000000, A.D. 2025-Oct-18 00:00:00.0000, -3.014120107241321E+08, 4.789676036620184E+07, 6.350463115512500E+06,
2460973.500000000, A.D. 2025-Oct-25 00:00:00.0000, -3.036187399893199E+08, 3.497158941471075E+07, 6.829150789435057E+06,
2460980.500000000, A.D. 2025-Nov-01 00:00:00.0000, -3.053096218945553E+08, 2.198699575998606E+07, 7.296236053178371E+06,
2460987.500000000, A.D. 2025-Nov-08 00:00:00.0000, -3.064842428866645E+08, 8.965213303214008E+06, 7.750984210069391E+06,
2460994.500000000, A.D. 2025-Nov-15 00:00:00.0000, -3.071432781672270E+08, -4.071665325811373E+06, 8.192693686632586E+06,
2461001.500000000, A.D. 2025-Nov-22 00:00:00.0000, -3.072884689810572E+08, -1.710175141675120E+07, 8.620697399219099E+06,
2461008.500000000, A.D. 2025-Nov-29 00:00:00.0000, -3.069225953109729E+08, -3.010341892889670E+07, 9.034363979297500E+06,
2461015.500000000, A.D. 2025-Dec-06 00:00:00.0000, -3.060494466147298E+08, -4.305535917380845E+07, 9.433099053335395E+06,
2461022.500000000, A.D. 2025-Dec-13 00:00:00.0000, -3.046737905473959E+08, -5.593663453544033E+07, 9.816346262790427E+06,
2461029.500000000, A.D. 2025-Dec-20 00:00:00.0000, -3.028013365611903E+08, -6.872672998175603E+07, 1.018358779102757E+07,
2461036.500000000, A.D. 2025-Dec-27 00:00:00.0000, -3.004386958369048E+08, -8.140559959953722E+07, 1.053434471321527E+07,
2461043.500000000, A.D. 2026-Jan-03 00:00:00.0000, -2.975933393857470E+08, -9.395370864469951E+07, 1.086817725910559E+07,
2461050.500000000, A.D. 2026-Jan-10 00:00:00.0000, -2.942735546004208E+08, -1.063520717132687E+08, 1.118468493016240E+07,
2461057.500000000, A.D. 2026-Jan-17 00:00:00.0000, -2.904884004119827E+08, -1.185822870886679E+08, 1.148350645097068E+07,
2461064.500000000, A.D. 2026-Jan-24 00:00:00.0000, -2.862476613505271E+08, -1.306265672421049E+08, 1.176431955985498E+07,
2461071.500000000, A.D. 2026-Jan-31 00:00:00.0000, -2.815618008449478E+08, -1.424677655291936E+08, 1.202684064688299E+07,
2461078.500000000, A.D. 2026-Feb-07 00:00:00.0000, -2.764419140408312E+08, -1.540893992095945E+08, 1.227082424031420E+07,
2461085.500000000, A.D. 2026-Feb-14 00:00:00.0000, -2.708996802038449E+08, -1.654756689039441E+08, 1.249606232879879E+07,
2461092.500000000, A.D. 2026-Feb-21 00:00:00.0000, -2.649473146186096E+08, -1.766114740352828E+08, 1.270238354295690E+07,
2461099.500000000, A.D. 2026-Feb-28 00:00:00.0000, -2.585975213396818E+08, -1.874824232472355E+08, 1.288965240207291E+07,
2461106.500000000, A.D. 2026-Mar-07 00:00:00.0000, -2.518634490987610E+08, -1.980748419147848E+08, 1.305776866697189E+07,
2461113.500000000, A.D. 2026-Mar-14 00:00:00.0000, -2.447586478157120E+08, -2.083757792645725E+08, 1.320666636544596E+07,
2461120.500000000, A.D. 2026-Mar-21 00:00:00.0000, -2.372970241304706E+08, -2.183730124010144E+08, 1.333631257547766E+07,
2461127.500000000, A.D. 2026-Mar-28 00:00:00.0000, -2.294927981362987E+08, -2.280550464074268E+08, 1.344670624630848E+07,
2461134.500000000, A.D. 2026-Apr-04 00:00:00.0000, -2.213604620598892E+08, -2.374111116894868E+08, 1.353787704449911E+07,
2461141.500000000, A.D. 2026-Apr-11 00:00:00.0000, -2.129147407305792E+08, -2.464311591283083E+08, 1.360988418003546E+07,
2461148.500000000, A.D. 2026-Apr-18 00:00:00.0000, -2.041705537754738E+08, -2.551058532610701E+08, 1.366281520650585E+07,
2461155.500000000, A.D. 2026-Apr-25 00:00:00.0000, -1.951429795724624E+08, -2.634265636831225E+08, 1.369678480152245E+07,
2461162.500000000, A.D. 2026-May-02 00:00:00.0000, -1.858472209881055E+08, -2.713853549026245E+08, 1.371193353078565E+07,
2461169.500000000, A.D. 2026-May-09 00:00:00.0000, -1.762985728132192E+08, -2.789749749072622E+08, 1.370842658654806E+07,
2461176.500000000, A.D. 2026-May-16 00:00:00.0000, -1.665123905371952E+08, -2.861888424893011E+08, 1.368645248360240E+07,
2461183.500000000, A.D. 2026-May-23 00:00:00.0000, -1.565040604110492E+08, -2.930210324811932E+08, 1.364622179702643E+07,
2461190.500000000, A.D. 2026-May-30 00:00:00.0000, -1.462889728624129E+08, -2.994662587464202E+08, 1.358796616280684E+07,
2461197.500000000, A.D. 2026-Jun-06 00:00:00.0000, -1.358824995493523E+08, -3.055198583567908E+08, 1.351193730650222E+07,
2461204.500000000, A.D. 2026-Jun-13 00:00:00.0000, -1.252999703477890E+08, -3.111777769122306E+08, 1.341840578367223E+07,
2461211.500000000, A.D. 2026-Jun-20 00:00:00.0000, -1.145566507293773E+08, -3.164365522246724E+08, 1.330765972119418E+07,
2461218.500000000, A.D. 2026-Jun-27 00:00:00.0000, -1.036677211788490E+08, -3.212932968417322E+08, 1.318000369116715E+07,
2461225.500000000, A.D. 2026-Jul-04 00:00:00.0000, -9.264825859668282E+07, -3.257456803080578E+08, 1.303575765702139E+07,
2461232.500000000, A.D. 2026-Jul-11 00:00:00.0000, -8.151321937362677E+07, -3.297919114063902E+08, 1.287525595970714E+07,
2461239.500000000, A.D. 2026-Jul-18 00:00:00.0000, -7.027742397945626E+07, -3.334307204519337E+08, 1.269884633866802E+07,
2461246.500000000, A.D. 2026-Jul-25 00:00:00.0000, -5.895554297402822E+07, -3.366613417277472E+08, 1.250688898650460E+07,
2461253.500000000, A.D. 2026-Aug-01 00:00:00.0000, -4.756208432506918E+07, -3.394834961884440E+08, 1.229975562988462E+07,
2461260.500000000, A.D. 2026-Aug-08 00:00:00.0000, -3.611138174885350E+07, -3.418973745327658E+08, 1.207782861430138E+07,
2461267.500000000, A.D. 2026-Aug-15 00:00:00.0000, -2.461758358464859E+07, -3.439036202468305E+08, 1.184149999057446E+07,
2461274.500000000, A.D. 2026-Aug-22 00:00:00.0000, -1.309464288426936E+07, -3.455033114431475E+08, 1.159117077120928E+07,
2461281.500000000, A.D. 2026-Aug-29 00:00:00.0000, -1.556310924510326E+06, -3.466979429138612E+08, 1.132725045301317E+07,
2461288.500000000, A.D. 2026-Sep-05 00:00:00.0000, 9.983868068720594E+06, -3.474894113129693E+08, 1.105015637525794E+07,
2461295.500000000, A.D. 2026-Sep-12 00:00:00.0000, 2.151256350948021E+07, -3.478800010161587E+08, 1.076031289242567E+07,
$$EOE